SL-16 R/B               
1 25400U 98043G   25345.11443295  .00000139  00000+0  77234-4 0  9992
2 25400  98.8122 292.9234 0008795 272.0578  87.9594 14.26024926426363
SL-16 R/B               
1 25407U 98045B   25345.28139628 -.00000182  00000+0 -68035-4 0  9990
2 25407  71.0120   7.4941 0007009 180.0865 180.0258 14.16175421414588
ISS (ZARYA)             
1 25544U 98067A   25345.18672918  .00016503  00000+0  30174-3 0  9993
2 25544  51.6309 150.1691 0003334 234.1557 125.9122 15.49499993542611
CZ-4B R/B               
1 25732U 99025C   25345.12637866  .00000107  00000+0  72796-4 0  9994
2 25732  98.6771  26.4425 0036240 238.7589 181.4957 14.18242935375615
OKEAN-O                 
1 25860U 99039A   25345.16714052  .00001208  00000+0  16603-3 0  9995
2 25860  97.9603  40.8823 0000805  95.4662 264.6641 14.80157062421298
SL-16 R/B               
1 25861U 99039B   25345.16373317  .00000972  00000+0  13046-3 0  9996
2 25861  98.0127  39.3148 0014802 179.7444 180.3779 14.81582816423750
DELTA 2 R/B             
1 25876U 99041E   25345.22662702  .00001823  00000+0  33273-3 0  9991
2 25876  51.7614 294.4861 0504725  87.3056 278.5518 14.11394887350538
HELIOS 1B               
1 25977U 99064A   25345.25609496  .00003850  00000+0  43340-3 0  9990
2 25977  98.1751 239.8776 0001803  45.2228 314.9134 14.87273874672113
TERRA                   
1 25994U 99068A   25345.22341002  .00000840  00000+0  18076-3 0  9990
2 25994  97.9751  36.9636 0003602  97.5535 303.0659 14.60899616382163
SL-16 R/B               
1 26070U 00006B   25345.27386575 -.00000043  00000+0  25659-5 0  9992
2 26070  71.0033 283.7393 0018449 310.6090  49.3428 14.15810792336045
TITAN 4B R/B            
1 26474U 00047B   25345.21829259  .00005866  00000+0  37424-3 0  9998
2 26474  67.9901 289.1281 0039041 146.2935 214.0709 15.08761485379563
ENVISAT                 
1 27386U 02009A   25345.31759074  .00000263  00000+0  99205-4 0  9991
2 27386  98.3597 296.0941 0001139  82.1759  37.7057 14.38998533246460
