CCSDS_OMM_VERS = 2.0
CREATION_DATE  = 
ORIGINATOR     = 

OBJECT_NAME    = SL-16 R/B
OBJECT_ID      = 1998-043G
CENTER_NAME    = EARTH
REF_FRAME      = TEME
TIME_SYSTEM    = UTC
MEAN_ELEMENT_THEORY = SGP/SGP4

EPOCH          = 2025-12-11T02:44:47.006880
MEAN_MOTION    = 14.26024926
ECCENTRICITY   = .00087959
INCLINATION    = 98.8122
RA_OF_ASC_NODE = 292.9234
ARG_OF_PERICENTER = 272.0578
MEAN_ANOMALY   = 87.9594

EPHEMERIS_TYPE = 0
CLASSIFICATION_TYPE = U
NORAD_CAT_ID   = 25400
ELEMENT_SET_NO = 999
REV_AT_EPOCH   = 42636
BSTAR          = .77233717E-4
MEAN_MOTION_DOT = .139E-5
MEAN_MOTION_DDOT = 0

CCSDS_OMM_VERS = 2.0
CREATION_DATE  = 
ORIGINATOR     = 

OBJECT_NAME    = SL-16 R/B
OBJECT_ID      = 1998-045B
CENTER_NAME    = EARTH
REF_FRAME      = TEME
TIME_SYSTEM    = UTC
MEAN_ELEMENT_THEORY = SGP/SGP4

EPOCH          = 2025-12-11T06:45:12.638592
MEAN_MOTION    = 14.16175421
ECCENTRICITY   = .00070094
INCLINATION    = 71.0120
RA_OF_ASC_NODE = 7.4941
ARG_OF_PERICENTER = 180.0865
MEAN_ANOMALY   = 180.0258

EPHEMERIS_TYPE = 0
CLASSIFICATION_TYPE = U
NORAD_CAT_ID   = 25407
ELEMENT_SET_NO = 999
REV_AT_EPOCH   = 41458
BSTAR          = -.68034861E-4
MEAN_MOTION_DOT = -.182E-5
MEAN_MOTION_DDOT = 0

CCSDS_OMM_VERS = 2.0
CREATION_DATE  = 
ORIGINATOR     = 

OBJECT_NAME    = ISS (ZARYA)
OBJECT_ID      = 1998-067A
CENTER_NAME    = EARTH
REF_FRAME      = TEME
TIME_SYSTEM    = UTC
MEAN_ELEMENT_THEORY = SGP/SGP4

EPOCH          = 2025-12-11T04:28:53.401152
MEAN_MOTION    = 15.49499993
ECCENTRICITY   = .00033343
INCLINATION    = 51.6309
RA_OF_ASC_NODE = 150.1691
ARG_OF_PERICENTER = 234.1557
MEAN_ANOMALY   = 125.9122

EPHEMERIS_TYPE = 0
CLASSIFICATION_TYPE = U
NORAD_CAT_ID   = 25544
ELEMENT_SET_NO = 999
REV_AT_EPOCH   = 54261
BSTAR          = .30173842E-3
MEAN_MOTION_DOT = .16503E-3
MEAN_MOTION_DDOT = 0

CCSDS_OMM_VERS = 2.0
CREATION_DATE  = 
ORIGINATOR     = 

OBJECT_NAME    = CZ-4B R/B
OBJECT_ID      = 1999-025C
CENTER_NAME    = EARTH
REF_FRAME      = TEME
TIME_SYSTEM    = UTC
MEAN_ELEMENT_THEORY = SGP/SGP4

EPOCH          = 2025-12-11T03:01:59.116224
MEAN_MOTION    = 14.18242935
ECCENTRICITY   = .00362401
INCLINATION    = 98.6771
RA_OF_ASC_NODE = 26.4425
ARG_OF_PERICENTER = 238.7589
MEAN_ANOMALY   = 181.4957

EPHEMERIS_TYPE = 0
CLASSIFICATION_TYPE = U
NORAD_CAT_ID   = 25732
ELEMENT_SET_NO = 999
REV_AT_EPOCH   = 37561
BSTAR          = .72795746E-4
MEAN_MOTION_DOT = .107E-5
MEAN_MOTION_DDOT = 0

CCSDS_OMM_VERS = 2.0
CREATION_DATE  = 
ORIGINATOR     = 

OBJECT_NAME    = OKEAN-O
OBJECT_ID      = 1999-039A
CENTER_NAME    = EARTH
REF_FRAME      = TEME
TIME_SYSTEM    = UTC
MEAN_ELEMENT_THEORY = SGP/SGP4

EPOCH          = 2025-12-11T04:00:40.940928
MEAN_MOTION    = 14.80157062
ECCENTRICITY   = .00008054
INCLINATION    = 97.9603
RA_OF_ASC_NODE = 40.8823
ARG_OF_PERICENTER = 95.4662
MEAN_ANOMALY   = 264.6641

EPHEMERIS_TYPE = 0
CLASSIFICATION_TYPE = U
NORAD_CAT_ID   = 25860
ELEMENT_SET_NO = 999
REV_AT_EPOCH   = 42129
BSTAR          = .16603245E-3
MEAN_MOTION_DOT = .1208E-4
MEAN_MOTION_DDOT = 0

CCSDS_OMM_VERS = 2.0
CREATION_DATE  = 
ORIGINATOR     = 

OBJECT_NAME    = SL-16 R/B
OBJECT_ID      = 1999-039B
CENTER_NAME    = EARTH
REF_FRAME      = TEME
TIME_SYSTEM    = UTC
MEAN_ELEMENT_THEORY = SGP/SGP4

EPOCH          = 2025-12-11T03:55:46.545888
MEAN_MOTION    = 14.81582816
ECCENTRICITY   = .00148025
INCLINATION    = 98.0127
RA_OF_ASC_NODE = 39.3148
ARG_OF_PERICENTER = 179.7444
MEAN_ANOMALY   = 180.3779

EPHEMERIS_TYPE = 0
CLASSIFICATION_TYPE = U
NORAD_CAT_ID   = 25861
ELEMENT_SET_NO = 999
REV_AT_EPOCH   = 42375
BSTAR          = .13045862E-3
MEAN_MOTION_DOT = .972E-5
MEAN_MOTION_DDOT = 0

CCSDS_OMM_VERS = 2.0
CREATION_DATE  = 
ORIGINATOR     = 

OBJECT_NAME    = DELTA 2 R/B
OBJECT_ID      = 1999-041E
CENTER_NAME    = EARTH
REF_FRAME      = TEME
TIME_SYSTEM    = UTC
MEAN_ELEMENT_THEORY = SGP/SGP4

EPOCH          = 2025-12-11T05:26:20.574528
MEAN_MOTION    = 14.11394887
ECCENTRICITY   = .05047258
INCLINATION    = 51.7614
RA_OF_ASC_NODE = 294.4861
ARG_OF_PERICENTER = 87.3056
MEAN_ANOMALY   = 278.5518

EPHEMERIS_TYPE = 0
CLASSIFICATION_TYPE = U
NORAD_CAT_ID   = 25876
ELEMENT_SET_NO = 999
REV_AT_EPOCH   = 35053
BSTAR          = .33272974E-3
MEAN_MOTION_DOT = .1823E-4
MEAN_MOTION_DDOT = 0

CCSDS_OMM_VERS = 2.0
CREATION_DATE  = 
ORIGINATOR     = 

OBJECT_NAME    = HELIOS 1B
OBJECT_ID      = 1999-064A
CENTER_NAME    = EARTH
REF_FRAME      = TEME
TIME_SYSTEM    = UTC
MEAN_ELEMENT_THEORY = SGP/SGP4

EPOCH          = 2025-12-11T06:08:46.604544
MEAN_MOTION    = 14.87273874
ECCENTRICITY   = .00018038
INCLINATION    = 98.1751
RA_OF_ASC_NODE = 239.8776
ARG_OF_PERICENTER = 45.2228
MEAN_ANOMALY   = 314.9134

EPHEMERIS_TYPE = 0
CLASSIFICATION_TYPE = U
NORAD_CAT_ID   = 25977
ELEMENT_SET_NO = 999
REV_AT_EPOCH   = 67211
BSTAR          = .43339625E-3
MEAN_MOTION_DOT = .385E-4
MEAN_MOTION_DDOT = 0

CCSDS_OMM_VERS = 2.0
CREATION_DATE  = 
ORIGINATOR     = 

OBJECT_NAME    = TERRA
OBJECT_ID      = 1999-068A
CENTER_NAME    = EARTH
REF_FRAME      = TEME
TIME_SYSTEM    = UTC
MEAN_ELEMENT_THEORY = SGP/SGP4

EPOCH          = 2025-12-11T05:21:42.625728
MEAN_MOTION    = 14.60899616
ECCENTRICITY   = .00036025
INCLINATION    = 97.9751
RA_OF_ASC_NODE = 36.9636
ARG_OF_PERICENTER = 97.5535
MEAN_ANOMALY   = 303.0659

EPHEMERIS_TYPE = 0
CLASSIFICATION_TYPE = U
NORAD_CAT_ID   = 25994
ELEMENT_SET_NO = 999
REV_AT_EPOCH   = 38216
BSTAR          = .18076247E-3
MEAN_MOTION_DOT = .84E-5
MEAN_MOTION_DDOT = 0

CCSDS_OMM_VERS = 2.0
CREATION_DATE  = 
ORIGINATOR     = 

OBJECT_NAME    = SL-16 R/B
OBJECT_ID      = 2000-006B
CENTER_NAME    = EARTH
REF_FRAME      = TEME
TIME_SYSTEM    = UTC
MEAN_ELEMENT_THEORY = SGP/SGP4

EPOCH          = 2025-12-11T06:34:22.000800
MEAN_MOTION    = 14.15810792
ECCENTRICITY   = .00184493
INCLINATION    = 71.0033
RA_OF_ASC_NODE = 283.7393
ARG_OF_PERICENTER = 310.6090
MEAN_ANOMALY   = 49.3428

EPHEMERIS_TYPE = 0
CLASSIFICATION_TYPE = U
NORAD_CAT_ID   = 26070
ELEMENT_SET_NO = 999
REV_AT_EPOCH   = 33604
BSTAR          = .2565885E-5
MEAN_MOTION_DOT = -.43E-6
MEAN_MOTION_DDOT = 0

CCSDS_OMM_VERS = 2.0
CREATION_DATE  = 
ORIGINATOR     = 

OBJECT_NAME    = TITAN 4B R/B
OBJECT_ID      = 2000-047B
CENTER_NAME    = EARTH
REF_FRAME      = TEME
TIME_SYSTEM    = UTC
MEAN_ELEMENT_THEORY = SGP/SGP4

EPOCH          = 2025-12-11T05:14:20.479776
MEAN_MOTION    = 15.08761485
ECCENTRICITY   = .00390419
INCLINATION    = 67.9901
RA_OF_ASC_NODE = 289.1281
ARG_OF_PERICENTER = 146.2935
MEAN_ANOMALY   = 214.0709

EPHEMERIS_TYPE = 0
CLASSIFICATION_TYPE = U
NORAD_CAT_ID   = 26474
ELEMENT_SET_NO = 999
REV_AT_EPOCH   = 37956
BSTAR          = .37424406E-3
MEAN_MOTION_DOT = .5866E-4
MEAN_MOTION_DDOT = 0

CCSDS_OMM_VERS = 2.0
CREATION_DATE  = 
ORIGINATOR     = 

OBJECT_NAME    = ENVISAT
OBJECT_ID      = 2002-009A
CENTER_NAME    = EARTH
REF_FRAME      = TEME
TIME_SYSTEM    = UTC
MEAN_ELEMENT_THEORY = SGP/SGP4

EPOCH          = 2025-12-11T07:37:19.839936
MEAN_MOTION    = 14.38998533
ECCENTRICITY   = .00011394
INCLINATION    = 98.3597
RA_OF_ASC_NODE = 296.0941
ARG_OF_PERICENTER = 82.1759
MEAN_ANOMALY   = 37.7057

EPHEMERIS_TYPE = 0
CLASSIFICATION_TYPE = U
NORAD_CAT_ID   = 27386
ELEMENT_SET_NO = 999
REV_AT_EPOCH   = 24646
BSTAR          = .99205478E-4
MEAN_MOTION_DOT = .263E-5
MEAN_MOTION_DDOT = 0

